CCSDS_OMM_VERS = 2.0
CREATION_DATE  = 
ORIGINATOR     = 

OBJECT_NAME    = SL-14 R/B
OBJECT_ID      = 1991-042B
CENTER_NAME    = EARTH
REF_FRAME      = TEME
TIME_SYSTEM    = UTC
MEAN_ELEMENT_THEORY = SGP/SGP4

EPOCH          = 2026-01-04T19:25:44.294880
MEAN_MOTION    = 14.81765361
ECCENTRICITY   = .00185676
INCLINATION    = 82.4937
RA_OF_ASC_NODE = 280.0923
ARG_OF_PERICENTER = 90.7553
MEAN_ANOMALY   = 269.5789

EPHEMERIS_TYPE = 0
CLASSIFICATION_TYPE = U
NORAD_CAT_ID   = 21423
ELEMENT_SET_NO = 999
REV_AT_EPOCH   = 84361
BSTAR          = .87984999E-4
MEAN_MOTION_DOT = .719E-5
MEAN_MOTION_DDOT = 0

CCSDS_OMM_VERS = 2.0
CREATION_DATE  = 
ORIGINATOR     = 

OBJECT_NAME    = ERS-1
OBJECT_ID      = 1991-050A
CENTER_NAME    = EARTH
REF_FRAME      = TEME
TIME_SYSTEM    = UTC
MEAN_ELEMENT_THEORY = SGP/SGP4

EPOCH          = 2026-01-04T22:54:45.727488
MEAN_MOTION    = 14.39387644
ECCENTRICITY   = .00325186
INCLINATION    = 98.7895
RA_OF_ASC_NODE = 21.5895
ARG_OF_PERICENTER = 32.9782
MEAN_ANOMALY   = 327.3424

EPHEMERIS_TYPE = 0
CLASSIFICATION_TYPE = U
NORAD_CAT_ID   = 21574
ELEMENT_SET_NO = 999
REV_AT_EPOCH   = 80656
BSTAR          = .18674821E-3
MEAN_MOTION_DOT = .538E-5
MEAN_MOTION_DDOT = 0

CCSDS_OMM_VERS = 2.0
CREATION_DATE  = 
ORIGINATOR     = 

OBJECT_NAME    = ARIANE 40 R/B
OBJECT_ID      = 1991-050F
CENTER_NAME    = EARTH
REF_FRAME      = TEME
TIME_SYSTEM    = UTC
MEAN_ELEMENT_THEORY = SGP/SGP4

EPOCH          = 2026-01-04T21:06:46.609632
MEAN_MOTION    = 14.42836421
ECCENTRICITY   = .00019973
INCLINATION    = 98.2130
RA_OF_ASC_NODE = 59.4715
ARG_OF_PERICENTER = 264.0327
MEAN_ANOMALY   = 96.0636

EPHEMERIS_TYPE = 0
CLASSIFICATION_TYPE = U
NORAD_CAT_ID   = 21610
ELEMENT_SET_NO = 999
REV_AT_EPOCH   = 80979
BSTAR          = .17084259E-3
MEAN_MOTION_DOT = .528E-5
MEAN_MOTION_DDOT = 0

CCSDS_OMM_VERS = 2.0
CREATION_DATE  = 
ORIGINATOR     = 

OBJECT_NAME    = INTERCOSMOS 25
OBJECT_ID      = 1991-086A
CENTER_NAME    = EARTH
REF_FRAME      = TEME
TIME_SYSTEM    = UTC
MEAN_ELEMENT_THEORY = SGP/SGP4

EPOCH          = 2026-01-04T22:01:29.177184
MEAN_MOTION    = 12.11825512
ECCENTRICITY   = .14859575
INCLINATION    = 82.6080
RA_OF_ASC_NODE = 348.5543
ARG_OF_PERICENTER = 254.4043
MEAN_ANOMALY   = 88.8630

EPHEMERIS_TYPE = 0
CLASSIFICATION_TYPE = U
NORAD_CAT_ID   = 21819
ELEMENT_SET_NO = 999
REV_AT_EPOCH   = 48896
BSTAR          = .35918888E-3
MEAN_MOTION_DOT = .1804E-4
MEAN_MOTION_DDOT = 0

CCSDS_OMM_VERS = 2.0
CREATION_DATE  = 
ORIGINATOR     = 

OBJECT_NAME    = SL-8 R/B
OBJECT_ID      = 1992-008B
CENTER_NAME    = EARTH
REF_FRAME      = TEME
TIME_SYSTEM    = UTC
MEAN_ELEMENT_THEORY = SGP/SGP4

EPOCH          = 2026-01-04T22:47:37.785696
MEAN_MOTION    = 13.75964556
ECCENTRICITY   = .00338337
INCLINATION    = 82.9283
RA_OF_ASC_NODE = 315.1836
ARG_OF_PERICENTER = 314.4686
MEAN_ANOMALY   = 110.7233

EPHEMERIS_TYPE = 0
CLASSIFICATION_TYPE = U
NORAD_CAT_ID   = 21876
ELEMENT_SET_NO = 999
REV_AT_EPOCH   = 70065
BSTAR          = .11416552E-3
MEAN_MOTION_DOT = .126E-5
MEAN_MOTION_DDOT = 0

CCSDS_OMM_VERS = 2.0
CREATION_DATE  = 
ORIGINATOR     = 

OBJECT_NAME    = SL-8 R/B
OBJECT_ID      = 1992-020B
CENTER_NAME    = EARTH
REF_FRAME      = TEME
TIME_SYSTEM    = UTC
MEAN_ELEMENT_THEORY = SGP/SGP4

EPOCH          = 2026-01-04T23:34:33.051936
MEAN_MOTION    = 13.75534467
ECCENTRICITY   = .00300988
INCLINATION    = 82.9291
RA_OF_ASC_NODE = 201.0574
ARG_OF_PERICENTER = 114.6915
MEAN_ANOMALY   = 355.6444

EPHEMERIS_TYPE = 0
CLASSIFICATION_TYPE = U
NORAD_CAT_ID   = 21938
ELEMENT_SET_NO = 999
REV_AT_EPOCH   = 69237
BSTAR          = .16799997E-3
MEAN_MOTION_DOT = .178E-5
MEAN_MOTION_DDOT = 0

CCSDS_OMM_VERS = 2.0
CREATION_DATE  = 
ORIGINATOR     = 

OBJECT_NAME    = USA 81
OBJECT_ID      = 1992-023A
CENTER_NAME    = EARTH
REF_FRAME      = TEME
TIME_SYSTEM    = UTC
MEAN_ELEMENT_THEORY = SGP/SGP4

EPOCH          = 2026-01-04T22:45:02.473920
MEAN_MOTION    = 14.32338015
ECCENTRICITY   = .0001218
INCLINATION    = 85.0091
RA_OF_ASC_NODE = 168.1914
ARG_OF_PERICENTER = 111.9259
MEAN_ANOMALY   = 248.2063

EPHEMERIS_TYPE = 0
CLASSIFICATION_TYPE = U
NORAD_CAT_ID   = 21949
ELEMENT_SET_NO = 999
REV_AT_EPOCH   = 8566
BSTAR          = .97298816E-4
MEAN_MOTION_DOT = .283E-5
MEAN_MOTION_DDOT = 0

CCSDS_OMM_VERS = 2.0
CREATION_DATE  = 
ORIGINATOR     = 

OBJECT_NAME    = COSMOS 2219
OBJECT_ID      = 1992-076A
CENTER_NAME    = EARTH
REF_FRAME      = TEME
TIME_SYSTEM    = UTC
MEAN_ELEMENT_THEORY = SGP/SGP4

EPOCH          = 2026-01-04T20:33:05.383584
MEAN_MOTION    = 14.14077743
ECCENTRICITY   = .00201674
INCLINATION    = 71.0606
RA_OF_ASC_NODE = 151.5097
ARG_OF_PERICENTER = 294.9774
MEAN_ANOMALY   = 64.9254

EPHEMERIS_TYPE = 0
CLASSIFICATION_TYPE = U
NORAD_CAT_ID   = 22219
ELEMENT_SET_NO = 999
REV_AT_EPOCH   = 70935
BSTAR          = .18826408E-3
MEAN_MOTION_DOT = .312E-5
MEAN_MOTION_DDOT = 0

CCSDS_OMM_VERS = 2.0
CREATION_DATE  = 
ORIGINATOR     = 

OBJECT_NAME    = SL-16 R/B
OBJECT_ID      = 1992-076B
CENTER_NAME    = EARTH
REF_FRAME      = TEME
TIME_SYSTEM    = UTC
MEAN_ELEMENT_THEORY = SGP/SGP4

EPOCH          = 2026-01-04T22:39:24.924672
MEAN_MOTION    = 14.16845373
ECCENTRICITY   = .00136651
INCLINATION    = 71.0011
RA_OF_ASC_NODE = 322.6517
ARG_OF_PERICENTER = 202.3277
MEAN_ANOMALY   = 215.2018

EPHEMERIS_TYPE = 0
CLASSIFICATION_TYPE = U
NORAD_CAT_ID   = 22220
ELEMENT_SET_NO = 999
REV_AT_EPOCH   = 71280
BSTAR          = .5668431E-5
MEAN_MOTION_DOT = -.37E-6
MEAN_MOTION_DDOT = 0

CCSDS_OMM_VERS = 2.0
CREATION_DATE  = 
ORIGINATOR     = 

OBJECT_NAME    = COSMOS 2221
OBJECT_ID      = 1992-080A
CENTER_NAME    = EARTH
REF_FRAME      = TEME
TIME_SYSTEM    = UTC
MEAN_ELEMENT_THEORY = SGP/SGP4

EPOCH          = 2026-01-04T23:07:30.536832
MEAN_MOTION    = 14.95882243
ECCENTRICITY   = .00159304
INCLINATION    = 82.5052
RA_OF_ASC_NODE = 340.0939
ARG_OF_PERICENTER = 51.3840
MEAN_ANOMALY   = 308.8805

EPHEMERIS_TYPE = 0
CLASSIFICATION_TYPE = U
NORAD_CAT_ID   = 22236
ELEMENT_SET_NO = 999
REV_AT_EPOCH   = 77126
BSTAR          = .2300792E-3
MEAN_MOTION_DOT = .2604E-4
MEAN_MOTION_DDOT = 0

CCSDS_OMM_VERS = 2.0
CREATION_DATE  = 
ORIGINATOR     = 

OBJECT_NAME    = SL-16 R/B
OBJECT_ID      = 1992-093B
CENTER_NAME    = EARTH
REF_FRAME      = TEME
TIME_SYSTEM    = UTC
MEAN_ELEMENT_THEORY = SGP/SGP4

EPOCH          = 2026-01-04T18:47:12.681024
MEAN_MOTION    = 14.15434056
ECCENTRICITY   = .00031285
INCLINATION    = 71.0211
RA_OF_ASC_NODE = 138.4241
ARG_OF_PERICENTER = 9.8387
MEAN_ANOMALY   = 350.2796

EPHEMERIS_TYPE = 0
CLASSIFICATION_TYPE = U
NORAD_CAT_ID   = 22285
ELEMENT_SET_NO = 999
REV_AT_EPOCH   = 70411
BSTAR          = -.30040606E-4
MEAN_MOTION_DOT = -.106E-5
MEAN_MOTION_DDOT = 0

CCSDS_OMM_VERS = 2.0
CREATION_DATE  = 
ORIGINATOR     = 

OBJECT_NAME    = COSMOS 2228
OBJECT_ID      = 1992-094A
CENTER_NAME    = EARTH
REF_FRAME      = TEME
TIME_SYSTEM    = UTC
MEAN_ELEMENT_THEORY = SGP/SGP4

EPOCH          = 2026-01-04T21:18:27.665280
MEAN_MOTION    = 14.96864678
ECCENTRICITY   = .00186235
INCLINATION    = 82.5199
RA_OF_ASC_NODE = 298.3859
ARG_OF_PERICENTER = 151.5386
MEAN_ANOMALY   = 208.6858

EPHEMERIS_TYPE = 0
CLASSIFICATION_TYPE = U
NORAD_CAT_ID   = 22286
ELEMENT_SET_NO = 999
REV_AT_EPOCH   = 76651
BSTAR          = .30668289E-3
MEAN_MOTION_DOT = .3553E-4
MEAN_MOTION_DDOT = 0

