SL-14 R/B               
1 21423U 91042B   26004.80954045  .00000719  00000+0  87985-4 0  9992
2 21423  82.4937 280.0923 0018567  90.7553 269.5789 14.81765361843617
ERS-1                   
1 21574U 91050A   26004.95469592  .00000538  00000+0  18675-3 0  9990
2 21574  98.7895  21.5895 0032518  32.9782 327.3424 14.39387644806566
ARIANE 40 R/B           
1 21610U 91050F   26004.87970613  .00000528  00000+0  17084-3 0  9995
2 21610  98.2130  59.4715 0001997 264.0327  96.0636 14.42836421809794
INTERCOSMOS 25          
1 21819U 91086A   26004.91769881  .00001804  00000+0  35919-3 0  9998
2 21819  82.6080 348.5543 1485957 254.4043  88.8630 12.11825512488966
SL-8 R/B                
1 21876U 92008B   26004.94974289  .00000126  00000+0  11417-3 0  9992
2 21876  82.9283 315.1836 0033833 314.4686 110.7233 13.75964556700653
SL-8 R/B                
1 21938U 92020B   26004.98232699  .00000178  00000+0  16800-3 0  9999
2 21938  82.9291 201.0574 0030098 114.6915 355.6444 13.75534467692375
USA 81                  
1 21949U 92023A   26004.94794530  .00000283  00000+0  97299-4 0  9996
2 21949  85.0091 168.1914 0001218 111.9259 248.2063 14.32338015 85660
COSMOS 2219             
1 22219U 92076A   26004.85631231  .00000312  00000+0  18826-3 0  9994
2 22219  71.0606 151.5097 0020167 294.9774  64.9254 14.14077743709356
SL-16 R/B               
1 22220U 92076B   26004.94403848 -.00000037  00000+0  56684-5 0  9998
2 22220  71.0011 322.6517 0013665 202.3277 215.2018 14.16845373712809
COSMOS 2221             
1 22236U 92080A   26004.96354788  .00002604  00000+0  23008-3 0  9993
2 22236  82.5052 340.0939 0015930  51.3840 308.8805 14.95882243771267
SL-16 R/B               
1 22285U 92093B   26004.78278566 -.00000106  00000+0 -30041-4 0  9993
2 22285  71.0211 138.4241 0003128   9.8387 350.2796 14.15434056704113
COSMOS 2228             
1 22286U 92094A   26004.88782020  .00003553  00000+0  30668-3 0  9992
2 22286  82.5199 298.3859 0018623 151.5386 208.6858 14.96864678766510
